[{"OBJECT_NAME":"KINEIS-5B","OBJECT_ID":"2024-219E","EPOCH":"2026-03-09T22:46:51.481344","MEAN_MOTION":14.78074364,"ECCENTRICITY":0.00015209,"INCLINATION":97.9946,"RA_OF_ASC_NODE":233.4308,"ARG_OF_PERICENTER":190.4987,"MEAN_ANOMALY":169.6192,"EPHEMERIS_TYPE":0,"CLASSIFICATION_TYPE":"U","NORAD_CAT_ID":62085,"ELEMENT_SET_NO":999,"REV_AT_EPOCH":6934,"BSTAR":0.00031384185,"MEAN_MOTION_DOT":2.217e-5,"MEAN_MOTION_DDOT":0},{"OBJECT_NAME":"CZ-6A DEB","OBJECT_ID":"2022-151VP","EPOCH":"2026-03-09T01:44:42.359136","MEAN_MOTION":14.58782348,"ECCENTRICITY":0.00927193,"INCLINATION":98.6246,"RA_OF_ASC_NODE":122.242,"ARG_OF_PERICENTER":253.7207,"MEAN_ANOMALY":105.3777,"EPHEMERIS_TYPE":0,"CLASSIFICATION_TYPE":"U","NORAD_CAT_ID":55198,"ELEMENT_SET_NO":999,"REV_AT_EPOCH":17004,"BSTAR":0.0019776877,"MEAN_MOTION_DOT":9.766e-5,"MEAN_MOTION_DDOT":0}]
